DELTA 1 R/B             
1 20323U 89089B   25318.56457911  .00000794  00000+0  20501-3 0  9991
2 20323  97.0777 179.2644 0070461 125.6063 235.1727 14.50538469879043
ARIANE 40 R/B           
1 20443U 90005H   25318.17665111  .00000951  00000+0  31690-3 0  9990
2 20443  98.3283  17.1565 0010051 185.9043 174.2029 14.39767804876184
DELTA 2 R/B(1)          
1 20453U 90008B   25318.74997550  .00035915  00000+0  61572-3 0  9992
2 20453  35.6069 200.9160 0117629 283.3097  75.4541 15.42699894908304
COSMOS 2058             
1 20465U 90010A   25318.79872370  .00004659  00000+0  28354-3 0  9997
2 20465  82.4652 160.5192 0010902  17.5321 342.6283 15.10155754924895
SL-14 R/B               
1 20466U 90010B   25318.41563213  .00000908  00000+0  10748-3 0  9991
2 20466  82.5047  15.6461 0018877 323.3582  36.6341 14.83434227911390
SL-14 R/B               
1 20511U 90018B   25318.79524573  .00000843  00000+0  10301-3 0  9990
2 20511  82.5204 330.4871 0017882 108.6869 251.6288 14.82007192905563
HST                     
1 20580U 90037B   25318.70307728  .00008593  00000+0  30207-3 0  9996
2 20580  28.4675 103.2400 0001369 288.8831  71.1616 15.27514736755703
SL-16 R/B               
1 20625U 90046B   25318.61020601 -.00000140  00000+0 -47809-4 0  9997
2 20625  70.9967 179.5962 0012312 124.7893 235.4390 14.14990397832115
COSMOS 2084             
1 20663U 90055A   25318.59343727  .00004111  00000+0  30007-3 0  9994
2 20663  62.7924   7.8801 0036167 171.3933 188.7795 15.04783254918993
SL-6 R/B(2)             
1 20666U 90055D   25318.62410235  .00003858  00000+0  30031-3 0  9994
2 20666  62.7836 284.9328 0010824 284.9619  75.0281 15.02882576920899
SL-8 R/B                
1 20775U 90078B   25318.36609770  .00019852  00000+0  61239-3 0  9990
2 20775  82.9072 354.6714 0380571  40.8975 322.0133 14.84370726792169
SL-8 R/B                
1 21088U 91006B   25318.85678101  .00000177  00000+0  16226-3 0  9994
2 21088  82.9417 255.4524 0022623   0.6273  53.3935 13.77484823748264
