CCSDS_OMM_VERS = 2.0
CREATION_DATE  = 
ORIGINATOR     = 

OBJECT_NAME    = DELTA 1 R/B
OBJECT_ID      = 1989-089B
CENTER_NAME    = EARTH
REF_FRAME      = TEME
TIME_SYSTEM    = UTC
MEAN_ELEMENT_THEORY = SGP/SGP4

EPOCH          = 2025-11-14T13:32:59.635104
MEAN_MOTION    = 14.50538469
ECCENTRICITY   = .0070461
INCLINATION    = 97.0777
RA_OF_ASC_NODE = 179.2644
ARG_OF_PERICENTER = 125.6063
MEAN_ANOMALY   = 235.1727

EPHEMERIS_TYPE = 0
CLASSIFICATION_TYPE = U
NORAD_CAT_ID   = 20323
ELEMENT_SET_NO = 999
REV_AT_EPOCH   = 87904
BSTAR          = .20501E-3
MEAN_MOTION_DOT = .794E-5
MEAN_MOTION_DDOT = 0

CCSDS_OMM_VERS = 2.0
CREATION_DATE  = 
ORIGINATOR     = 

OBJECT_NAME    = ARIANE 40 R/B
OBJECT_ID      = 1990-005H
CENTER_NAME    = EARTH
REF_FRAME      = TEME
TIME_SYSTEM    = UTC
MEAN_ELEMENT_THEORY = SGP/SGP4

EPOCH          = 2025-11-14T04:14:22.655904
MEAN_MOTION    = 14.39767804
ECCENTRICITY   = .00100515
INCLINATION    = 98.3283
RA_OF_ASC_NODE = 17.1565
ARG_OF_PERICENTER = 185.9043
MEAN_ANOMALY   = 174.2029

EPHEMERIS_TYPE = 0
CLASSIFICATION_TYPE = U
NORAD_CAT_ID   = 20443
ELEMENT_SET_NO = 999
REV_AT_EPOCH   = 87618
BSTAR          = .31690305E-3
MEAN_MOTION_DOT = .951E-5
MEAN_MOTION_DDOT = 0

CCSDS_OMM_VERS = 2.0
CREATION_DATE  = 
ORIGINATOR     = 

OBJECT_NAME    = DELTA 2 R/B(1)
OBJECT_ID      = 1990-008B
CENTER_NAME    = EARTH
REF_FRAME      = TEME
TIME_SYSTEM    = UTC
MEAN_ELEMENT_THEORY = SGP/SGP4

EPOCH          = 2025-11-14T17:59:57.883200
MEAN_MOTION    = 15.42699894
ECCENTRICITY   = .0117629
INCLINATION    = 35.6069
RA_OF_ASC_NODE = 200.9160
ARG_OF_PERICENTER = 283.3097
MEAN_ANOMALY   = 75.4541

EPHEMERIS_TYPE = 0
CLASSIFICATION_TYPE = U
NORAD_CAT_ID   = 20453
ELEMENT_SET_NO = 999
REV_AT_EPOCH   = 90830
BSTAR          = .61572E-3
MEAN_MOTION_DOT = .35915E-3
MEAN_MOTION_DDOT = 0

CCSDS_OMM_VERS = 2.0
CREATION_DATE  = 
ORIGINATOR     = 

OBJECT_NAME    = COSMOS 2058
OBJECT_ID      = 1990-010A
CENTER_NAME    = EARTH
REF_FRAME      = TEME
TIME_SYSTEM    = UTC
MEAN_ELEMENT_THEORY = SGP/SGP4

EPOCH          = 2025-11-14T19:10:09.727680
MEAN_MOTION    = 15.10155754
ECCENTRICITY   = .0010902
INCLINATION    = 82.4652
RA_OF_ASC_NODE = 160.5192
ARG_OF_PERICENTER = 17.5321
MEAN_ANOMALY   = 342.6283

EPHEMERIS_TYPE = 0
CLASSIFICATION_TYPE = U
NORAD_CAT_ID   = 20465
ELEMENT_SET_NO = 999
REV_AT_EPOCH   = 92489
BSTAR          = .28354E-3
MEAN_MOTION_DOT = .4659E-4
MEAN_MOTION_DDOT = 0

CCSDS_OMM_VERS = 2.0
CREATION_DATE  = 
ORIGINATOR     = 

OBJECT_NAME    = SL-14 R/B
OBJECT_ID      = 1990-010B
CENTER_NAME    = EARTH
REF_FRAME      = TEME
TIME_SYSTEM    = UTC
MEAN_ELEMENT_THEORY = SGP/SGP4

EPOCH          = 2025-11-14T09:58:30.616032
MEAN_MOTION    = 14.83434227
ECCENTRICITY   = .0018877
INCLINATION    = 82.5047
RA_OF_ASC_NODE = 15.6461
ARG_OF_PERICENTER = 323.3582
MEAN_ANOMALY   = 36.6341

EPHEMERIS_TYPE = 0
CLASSIFICATION_TYPE = U
NORAD_CAT_ID   = 20466
ELEMENT_SET_NO = 999
REV_AT_EPOCH   = 91139
BSTAR          = .10748E-3
MEAN_MOTION_DOT = .908E-5
MEAN_MOTION_DDOT = 0

CCSDS_OMM_VERS = 2.0
CREATION_DATE  = 
ORIGINATOR     = 

OBJECT_NAME    = SL-14 R/B
OBJECT_ID      = 1990-018B
CENTER_NAME    = EARTH
REF_FRAME      = TEME
TIME_SYSTEM    = UTC
MEAN_ELEMENT_THEORY = SGP/SGP4

EPOCH          = 2025-11-14T19:05:09.231072
MEAN_MOTION    = 14.82007192
ECCENTRICITY   = .0017882
INCLINATION    = 82.5204
RA_OF_ASC_NODE = 330.4871
ARG_OF_PERICENTER = 108.6869
MEAN_ANOMALY   = 251.6288

EPHEMERIS_TYPE = 0
CLASSIFICATION_TYPE = U
NORAD_CAT_ID   = 20511
ELEMENT_SET_NO = 999
REV_AT_EPOCH   = 90556
BSTAR          = .10301E-3
MEAN_MOTION_DOT = .843E-5
MEAN_MOTION_DDOT = 0

CCSDS_OMM_VERS = 2.0
CREATION_DATE  = 
ORIGINATOR     = 

OBJECT_NAME    = HST
OBJECT_ID      = 1990-037B
CENTER_NAME    = EARTH
REF_FRAME      = TEME
TIME_SYSTEM    = UTC
MEAN_ELEMENT_THEORY = SGP/SGP4

EPOCH          = 2025-11-14T16:52:25.876992
MEAN_MOTION    = 15.27514736
ECCENTRICITY   = .0001369
INCLINATION    = 28.4675
RA_OF_ASC_NODE = 103.2400
ARG_OF_PERICENTER = 288.8831
MEAN_ANOMALY   = 71.1616

EPHEMERIS_TYPE = 0
CLASSIFICATION_TYPE = U
NORAD_CAT_ID   = 20580
ELEMENT_SET_NO = 999
REV_AT_EPOCH   = 75570
BSTAR          = .30207E-3
MEAN_MOTION_DOT = .8593E-4
MEAN_MOTION_DDOT = 0

CCSDS_OMM_VERS = 2.0
CREATION_DATE  = 
ORIGINATOR     = 

OBJECT_NAME    = SL-16 R/B
OBJECT_ID      = 1990-046B
CENTER_NAME    = EARTH
REF_FRAME      = TEME
TIME_SYSTEM    = UTC
MEAN_ELEMENT_THEORY = SGP/SGP4

EPOCH          = 2025-11-14T14:38:41.799264
MEAN_MOTION    = 14.14990397
ECCENTRICITY   = .0012312
INCLINATION    = 70.9967
RA_OF_ASC_NODE = 179.5962
ARG_OF_PERICENTER = 124.7893
MEAN_ANOMALY   = 235.4390

EPHEMERIS_TYPE = 0
CLASSIFICATION_TYPE = U
NORAD_CAT_ID   = 20625
ELEMENT_SET_NO = 999
REV_AT_EPOCH   = 83211
BSTAR          = -.47809E-4
MEAN_MOTION_DOT = -.14E-5
MEAN_MOTION_DDOT = 0

CCSDS_OMM_VERS = 2.0
CREATION_DATE  = 
ORIGINATOR     = 

OBJECT_NAME    = COSMOS 2084
OBJECT_ID      = 1990-055A
CENTER_NAME    = EARTH
REF_FRAME      = TEME
TIME_SYSTEM    = UTC
MEAN_ELEMENT_THEORY = SGP/SGP4

EPOCH          = 2025-11-14T14:14:32.980128
MEAN_MOTION    = 15.04783254
ECCENTRICITY   = .0036167
INCLINATION    = 62.7924
RA_OF_ASC_NODE = 7.8801
ARG_OF_PERICENTER = 171.3933
MEAN_ANOMALY   = 188.7795

EPHEMERIS_TYPE = 0
CLASSIFICATION_TYPE = U
NORAD_CAT_ID   = 20663
ELEMENT_SET_NO = 999
REV_AT_EPOCH   = 91899
BSTAR          = .30007E-3
MEAN_MOTION_DOT = .4111E-4
MEAN_MOTION_DDOT = 0

CCSDS_OMM_VERS = 2.0
CREATION_DATE  = 
ORIGINATOR     = 

OBJECT_NAME    = SL-6 R/B(2)
OBJECT_ID      = 1990-055D
CENTER_NAME    = EARTH
REF_FRAME      = TEME
TIME_SYSTEM    = UTC
MEAN_ELEMENT_THEORY = SGP/SGP4

EPOCH          = 2025-11-14T14:58:42.443040
MEAN_MOTION    = 15.02882576
ECCENTRICITY   = .0010824
INCLINATION    = 62.7836
RA_OF_ASC_NODE = 284.9328
ARG_OF_PERICENTER = 284.9619
MEAN_ANOMALY   = 75.0281

EPHEMERIS_TYPE = 0
CLASSIFICATION_TYPE = U
NORAD_CAT_ID   = 20666
ELEMENT_SET_NO = 999
REV_AT_EPOCH   = 92089
BSTAR          = .30031E-3
MEAN_MOTION_DOT = .3858E-4
MEAN_MOTION_DDOT = 0

CCSDS_OMM_VERS = 2.0
CREATION_DATE  = 
ORIGINATOR     = 

OBJECT_NAME    = SL-8 R/B
OBJECT_ID      = 1990-078B
CENTER_NAME    = EARTH
REF_FRAME      = TEME
TIME_SYSTEM    = UTC
MEAN_ELEMENT_THEORY = SGP/SGP4

EPOCH          = 2025-11-14T08:47:10.841280
MEAN_MOTION    = 14.84370726
ECCENTRICITY   = .0380571
INCLINATION    = 82.9072
RA_OF_ASC_NODE = 354.6714
ARG_OF_PERICENTER = 40.8975
MEAN_ANOMALY   = 322.0133

EPHEMERIS_TYPE = 0
CLASSIFICATION_TYPE = U
NORAD_CAT_ID   = 20775
ELEMENT_SET_NO = 999
REV_AT_EPOCH   = 79216
BSTAR          = .61239E-3
MEAN_MOTION_DOT = .19852E-3
MEAN_MOTION_DDOT = 0

CCSDS_OMM_VERS = 2.0
CREATION_DATE  = 
ORIGINATOR     = 

OBJECT_NAME    = SL-8 R/B
OBJECT_ID      = 1991-006B
CENTER_NAME    = EARTH
REF_FRAME      = TEME
TIME_SYSTEM    = UTC
MEAN_ELEMENT_THEORY = SGP/SGP4

EPOCH          = 2025-11-14T20:33:45.879264
MEAN_MOTION    = 13.77484823
ECCENTRICITY   = .0022623
INCLINATION    = 82.9417
RA_OF_ASC_NODE = 255.4524
ARG_OF_PERICENTER = 0.6273
MEAN_ANOMALY   = 53.3935

EPHEMERIS_TYPE = 0
CLASSIFICATION_TYPE = U
NORAD_CAT_ID   = 21088
ELEMENT_SET_NO = 999
REV_AT_EPOCH   = 74826
BSTAR          = .16226E-3
MEAN_MOTION_DOT = .177E-5
MEAN_MOTION_DDOT = 0

